$$SOE
2460154.500000000, A.D. 2023-Jul-29 00:00:00.0000, -3.003277961034683E+09, 4.100640545895279E+09, 2.933955533536382E+08,
2460161.500000000, A.D. 2023-Aug-05 00:00:00.0000, -3.006088377900921E+09, 4.099002576737515E+09, 2.935952138449960E+08,
2460168.500000000, A.D. 2023-Aug-12 00:00:00.0000, -3.008897774286205E+09, 4.097363071105702E+09, 2.937947686939058E+08,
2460175.500000000, A.D. 2023-Aug-19 00:00:00.0000, -3.011706151374201E+09, 4.095722027458961E+09, 2.939942179682550E+08,
2460182.500000000, A.D. 2023-Aug-26 00:00:00.0000, -3.014513510043869E+09, 4.094079443858151E+09, 2.941935617118878E+08,
2460189.500000000, A.D. 2023-Sep-02 00:00:00.0000, -3.017319850891708E+09, 4.092435317984537E+09, 2.943927999460216E+08,
2460196.500000000, A.D. 2023-Sep-09 00:00:00.0000, -3.020125174240397E+09, 4.090789647045946E+09, 2.945919326593065E+08,
2460203.500000000, A.D. 2023-Sep-16 00:00:00.0000, -3.022929479965359E+09, 4.089142427512372E+09, 2.947909597663915E+08,
2460210.500000000, A.D. 2023-Sep-23 00:00:00.0000, -3.025732766722888E+09, 4.087493654967831E+09, 2.949898810203114E+08,
2460217.500000000, A.D. 2023-Sep-30 00:00:00.0000, -3.028535030919368E+09, 4.085843325269180E+09, 2.951886960072410E+08,
2460224.500000000, A.D. 2023-Oct-07 00:00:00.0000, -3.031336267775343E+09, 4.084191436469069E+09, 2.953874043952849E+08,
2460231.500000000, A.D. 2023-Oct-14 00:00:00.0000, -3.034136473444534E+09, 4.082537988189876E+09, 2.955860060713203E+08,
2460238.500000000, A.D. 2023-Oct-21 00:00:00.0000, -3.036935644959190E+09, 4.080882980051318E+09, 2.957845010009282E+08,
2460245.500000000, A.D. 2023-Oct-28 00:00:00.0000, -3.039733779426158E+09, 4.079226411411894E+09, 2.959828891269810E+08,
2460252.500000000, A.D. 2023-Nov-04 00:00:00.0000, -3.042530873723660E+09, 4.077568281653740E+09, 2.961811703588550E+08,
2460259.500000000, A.D. 2023-Nov-11 00:00:00.0000, -3.045326924521257E+09, 4.075908590411026E+09, 2.963793445872076E+08,
2460266.500000000, A.D. 2023-Nov-18 00:00:00.0000, -3.048121928403461E+09, 4.074247337677603E+09, 2.965774116991851E+08,
2460273.500000000, A.D. 2023-Nov-25 00:00:00.0000, -3.050915882024210E+09, 4.072584523816442E+09, 2.967753715894582E+08,
2460280.500000000, A.D. 2023-Dec-02 00:00:00.0000, -3.053708782263969E+09, 4.070920149459674E+09, 2.969732241637509E+08,
2460287.500000000, A.D. 2023-Dec-09 00:00:00.0000, -3.056500626311684E+09, 4.069254215240325E+09, 2.971709693230388E+08,
2460294.500000000, A.D. 2023-Dec-16 00:00:00.0000, -3.059291411384007E+09, 4.067586721368300E+09, 2.973686069030921E+08,
2460301.500000000, A.D. 2023-Dec-23 00:00:00.0000, -3.062081133733354E+09, 4.065917667738083E+09, 2.975661365935450E+08,
2460308.500000000, A.D. 2023-Dec-30 00:00:00.0000, -3.064869788285011E+09, 4.064247055617368E+09, 2.977635580450611E+08,
2460315.500000000, A.D. 2024-Jan-06 00:00:00.0000, -3.067657370675744E+09, 4.062574888555954E+09, 2.979608711340570E+08,
2460322.500000000, A.D. 2024-Jan-13 00:00:00.0000, -3.070443878521168E+09, 4.060901170707961E+09, 2.981580759461033E+08,
2460329.500000000, A.D. 2024-Jan-20 00:00:00.0000, -3.073229310688307E+09, 4.059225905651966E+09, 2.983551726175804E+08,
2460336.500000000, A.D. 2024-Jan-27 00:00:00.0000, -3.076013666602107E+09, 4.057549096361246E+09, 2.985521612747405E+08,
2460343.500000000, A.D. 2024-Feb-03 00:00:00.0000, -3.078796946014243E+09, 4.055870745375519E+09, 2.987490420316961E+08,
2460350.500000000, A.D. 2024-Feb-10 00:00:00.0000, -3.081579148956884E+09, 4.054190854883059E+09, 2.989458149978950E+08,
2460357.500000000, A.D. 2024-Feb-17 00:00:00.0000, -3.084360275742700E+09, 4.052509426721117E+09, 2.991424802828298E+08,
2460364.500000000, A.D. 2024-Feb-24 00:00:00.0000, -3.087140326975175E+09, 4.050826462309439E+09, 2.993390379957449E+08,
2460371.500000000, A.D. 2024-Mar-02 00:00:00.0000, -3.089919303539891E+09, 4.049141962484336E+09, 2.995354882348950E+08,
2460378.500000000, A.D. 2024-Mar-09 00:00:00.0000, -3.092697206437958E+09, 4.047455927170494E+09, 2.997318310483904E+08,
2460385.500000000, A.D. 2024-Mar-16 00:00:00.0000, -3.095474036066288E+09, 4.045768355087748E+09, 2.999280663464491E+08,
2460392.500000000, A.D. 2024-Mar-23 00:00:00.0000, -3.098249791048306E+09, 4.044079244601892E+09, 3.001241938651457E+08,
2460399.500000000, A.D. 2024-Mar-30 00:00:00.0000, -3.101024468856226E+09, 4.042388595692710E+09, 3.003202133850160E+08,
2460406.500000000, A.D. 2024-Apr-06 00:00:00.0000, -3.103798067968857E+09, 4.040696409671642E+09, 3.005161249058142E+08,
2460413.500000000, A.D. 2024-Apr-13 00:00:00.0000, -3.106570588013826E+09, 4.039002687485473E+09, 3.007119285200641E+08,
2460420.500000000, A.D. 2024-Apr-20 00:00:00.0000, -3.109342028846348E+09, 4.037307429282744E+09, 3.009076242914882E+08,
2460427.500000000, A.D. 2024-Apr-27 00:00:00.0000, -3.112112390081573E+09, 4.035610634681465E+09, 3.011032122316222E+08,
2460434.500000000, A.D. 2024-May-04 00:00:00.0000, -3.114881670992585E+09, 4.033912303034850E+09, 3.012986923091335E+08,
2460441.500000000, A.D. 2024-May-11 00:00:00.0000, -3.117649870535714E+09, 4.032212433593455E+09, 3.014940644617572E+08,
2460448.500000000, A.D. 2024-May-18 00:00:00.0000, -3.120416987421194E+09, 4.030511025585597E+09, 3.016893286052458E+08,
2460455.500000000, A.D. 2024-May-25 00:00:00.0000, -3.123183020204412E+09, 4.028808078209247E+09, 3.018844846366537E+08,
2460462.500000000, A.D. 2024-Jun-01 00:00:00.0000, -3.125947967337940E+09, 4.027103590478327E+09, 3.020795324219964E+08,
2460469.500000000, A.D. 2024-Jun-08 00:00:00.0000, -3.128711826937950E+09, 4.025397560900726E+09, 3.022744717440588E+08,
2460476.500000000, A.D. 2024-Jun-15 00:00:00.0000, -3.131474595865534E+09, 4.023689987533422E+09, 3.024693022185121E+08,
2460483.500000000, A.D. 2024-Jun-22 00:00:00.0000, -3.134236269128107E+09, 4.021980869590086E+09, 3.026640233668556E+08,
2460490.500000000, A.D. 2024-Jun-29 00:00:00.0000, -3.136996841722545E+09, 4.020270208780554E+09, 3.028586348922265E+08,
2460497.500000000, A.D. 2024-Jul-06 00:00:00.0000, -3.139756310275050E+09, 4.018558007911195E+09, 3.030531367137668E+08,
2460504.500000000, A.D. 2024-Jul-13 00:00:00.0000, -3.142514672528496E+09, 4.016844269570371E+09, 3.032475288116906E+08,
2460511.500000000, A.D. 2024-Jul-20 00:00:00.0000, -3.145271926662890E+09, 4.015128996047738E+09, 3.034418111591551E+08,
2460518.500000000, A.D. 2024-Jul-27 00:00:00.0000, -3.148028071104972E+09, 4.013412189527971E+09, 3.036359837227023E+08,
2460525.500000000, A.D. 2024-Aug-03 00:00:00.0000, -3.150783104554004E+09, 4.011693852184058E+09, 3.038300464755273E+08,
2460532.500000000, A.D. 2024-Aug-10 00:00:00.0000, -3.153537026057971E+09, 4.009973986165896E+09, 3.040239994078650E+08,
2460539.500000000, A.D. 2024-Aug-17 00:00:00.0000, -3.156289835092881E+09, 4.008252593506217E+09, 3.042178425317309E+08,
2460546.500000000, A.D. 2024-Aug-24 00:00:00.0000, -3.159041531617316E+09, 4.006529675921934E+09, 3.044115758754079E+08,
2460553.500000000, A.D. 2024-Aug-31 00:00:00.0000, -3.161792115986612E+09, 4.004805234449797E+09, 3.046051994517972E+08,
2460560.500000000, A.D. 2024-Sep-07 00:00:00.0000, -3.164541588361174E+09, 4.003079269043103E+09, 3.047987131771634E+08,
2460567.500000000, A.D. 2024-Sep-14 00:00:00.0000, -3.167289947523677E+09, 4.001351779125602E+09, 3.049921168136051E+08,
2460574.500000000, A.D. 2024-Sep-21 00:00:00.0000, -3.170037191133994E+09, 3.999622765515449E+09, 3.051854101548276E+08,
2460581.500000000, A.D. 2024-Sep-28 00:00:00.0000, -3.172783317909317E+09, 3.997892230491697E+09, 3.053785932359924E+08,
2460588.500000000, A.D. 2024-Oct-05 00:00:00.0000, -3.175528328059808E+09, 3.996160176005175E+09, 3.055716662310374E+08,
2460595.500000000, A.D. 2024-Oct-12 00:00:00.0000, -3.178272222340369E+09, 3.994426603013933E+09, 3.057646293139889E+08,
2460602.500000000, A.D. 2024-Oct-19 00:00:00.0000, -3.181015001469467E+09, 3.992691511672647E+09, 3.059574826226876E+08,
2460609.500000000, A.D. 2024-Oct-26 00:00:00.0000, -3.183756665947364E+09, 3.990954901574710E+09, 3.061502262623694E+08,
2460616.500000000, A.D. 2024-Nov-02 00:00:00.0000, -3.186497216016286E+09, 3.989216771898911E+09, 3.063428603134019E+08,
2460623.500000000, A.D. 2024-Nov-09 00:00:00.0000, -3.189236651665830E+09, 3.987477121481659E+09, 3.065353848360169E+08,
2460630.500000000, A.D. 2024-Nov-16 00:00:00.0000, -3.191974972657529E+09, 3.985735948815314E+09, 3.067277998697405E+08,
2460637.500000000, A.D. 2024-Nov-23 00:00:00.0000, -3.194712178521510E+09, 3.983993251923007E+09, 3.069201054192080E+08,
2460644.500000000, A.D. 2024-Nov-30 00:00:00.0000, -3.197448268316799E+09, 3.982249028067576E+09, 3.071123014038496E+08,
2460651.500000000, A.D. 2024-Dec-07 00:00:00.0000, -3.200183239735744E+09, 3.980503273715428E+09, 3.073043875674484E+08,
2460658.500000000, A.D. 2024-Dec-14 00:00:00.0000, -3.202917088241071E+09, 3.978755985979515E+09, 3.074963635108836E+08,
2460665.500000000, A.D. 2024-Dec-21 00:00:00.0000, -3.205649808554085E+09, 3.977007164300765E+09, 3.076882289594767E+08,
2460672.500000000, A.D. 2024-Dec-28 00:00:00.0000, -3.208381396521468E+09, 3.975256809400738E+09, 3.078799838416893E+08,
2460679.500000000, A.D. 2025-Jan-04 00:00:00.0000, -3.211111848763399E+09, 3.973504921881749E+09, 3.080716281353557E+08,
2460686.500000000, A.D. 2025-Jan-11 00:00:00.0000, -3.213841161924167E+09, 3.971751502134327E+09, 3.082631617843642E+08,
2460693.500000000, A.D. 2025-Jan-18 00:00:00.0000, -3.216569332442091E+09, 3.969996550633262E+09, 3.084545846950603E+08,
2460700.500000000, A.D. 2025-Jan-25 00:00:00.0000, -3.219296356595115E+09, 3.968240068147675E+09, 3.086458967515254E+08,
2460707.500000000, A.D. 2025-Feb-01 00:00:00.0000, -3.222022230632465E+09, 3.966482055835014E+09, 3.088370978301411E+08,
2460714.500000000, A.D. 2025-Feb-08 00:00:00.0000, -3.224746950933821E+09, 3.964722515238611E+09, 3.090281878099384E+08,
2460721.500000000, A.D. 2025-Feb-15 00:00:00.0000, -3.227470514167107E+09, 3.962961448168797E+09, 3.092191665746627E+08,
$$EOE